IRIDIUM 171             
1 43929U 19002H   25332.99545073  .00000296  00000+0  98770-4 0  9997
2 43929  86.3974  77.5470 0002130 103.3431 256.8002 14.34217172360269
IRIDIUM 170             
1 43930U 19002J   25333.13621087  .00001266  00000+0  19683-3 0  9999
2 43930  86.6088  77.2040 0002305  89.8537 270.2945 14.72252838369826
IRIDIUM 167             
1 43931U 19002K   25332.84957140  .00000342  00000+0  11509-3 0  9992
2 43931  86.3969  77.3452 0002083 110.7334 249.4085 14.34219544360247
IRIDIUM 181             
1 56726U 23068S   25332.88318865  .00000163  00000+0  42382-4 0  9999
2 56726  86.4503 140.5128 0002664  92.9032 267.2474 14.43310384133547
IRIDIUM 177             
1 56727U 23068T   25333.22193347  .00001836  00000+0  23811-3 0  9998
2 56727  86.1972  63.7488 0002328  88.8515 271.2972 14.80241701136781
IRIDIUM 174             
1 56728U 23068U   25333.05588777  .00001358  00000+0  21149-3 0  9996
2 56728  86.6095  77.3650 0002360  89.1755 270.9732 14.72249029136570
IRIDIUM 178             
1 56729U 23068V   25331.79129098  .00000689  00000+0  87200-4 0  9990
2 56729  86.6528 109.5440 0002005  98.2826 261.8623 14.80228491136570
IRIDIUM 179             
1 56730U 23068W   25332.39432426  .00001553  00000+0  20094-3 0  9999
2 56730  86.6764 117.6717 0002423 101.9708 258.1786 14.80240053136663
